{"type": "FeatureCollection", "features": [ {"type": "Feature", "properties": {"norad_id": 37834, "name": "INTELSAT 18 (IS-18)", "group": "intelsat", "lat": -0.029069791263064363, "lon": -98.22918200557496, "alt_km": 35779.32082197039, "timestamp": "2025-12-18T23:35:48.715122+00:00", "meta": {"OBJECT_NAME": "INTELSAT 18 (IS-18)", "OBJECT_ID": "2011-056A", "EPOCH": "2025-12-18T13:13:38.413056", "MEAN_MOTION": 1.00272256, "ECCENTRICITY": 0.00016643, "INCLINATION": 0.0234, "RA_OF_ASC_NODE": 289.5104, "ARG_OF_PERICENTER": 352.8895, "MEAN_ANOMALY": 183.4193, "EPHEMERIS_TYPE": 0, "CLASSIFICATION_TYPE": "U", "NORAD_CAT_ID": 37834, "ELEMENT_SET_NO": 999, "REV_AT_EPOCH": 5200, "BSTAR": 0, "MEAN_MOTION_DOT": 7.8e-07, "MEAN_MOTION_DDOT": 0}, "tle": {"line1": "1 37834U 11056A   25352.55113904  .00000078  00000+0  00000+0 0  9996", "line2": "2 37834   0.0234 289.5104 0001664 352.8895 183.4193  1.00272256 52003"}}, "geometry": {"type": "Point", "coordinates": [-98.22918200557496, -0.029069791263064363]}}, {"type": "Feature", "properties": {"norad_id": 38098, "name": "INTELSAT 22 (IS-22)", "group": "intelsat", "lat": 0.0035333077311121668, "lon": 153.87283183090298, "alt_km": 35791.401845156455, "timestamp": "2025-12-18T23:35:48.715135+00:00", "meta": {"OBJECT_NAME": "INTELSAT 22 (IS-22)", "OBJECT_ID": "2012-011A", "EPOCH": "2025-12-18T13:38:17.206080", "MEAN_MOTION": 1.00270235, "ECCENTRICITY": 0.00018183, "INCLINATION": 0.0164, "RA_OF_ASC_NODE": 100.4627, "ARG_OF_PERICENTER": 183.0382, "MEAN_ANOMALY": 80.6113, "EPHEMERIS_TYPE": 0, "CLASSIFICATION_TYPE": "U", "NORAD_CAT_ID": 38098, "ELEMENT_SET_NO": 999, "REV_AT_EPOCH": 537, "BSTAR": 0, "MEAN_MOTION_DOT": -3.3e-07, "MEAN_MOTION_DDOT": 0}, "tle": {"line1": "1 38098U 12011A   25352.56825470 -.00000033  00000+0  00000+0 0  9992", "line2": "2 38098   0.0164 100.4627 0001818 183.0382  80.6113  1.00270235  5378"}}, "geometry": {"type": "Point", "coordinates": [153.87283183090298, 0.0035333077311121668]}}, {"type": "Feature", "properties": {"norad_id": 38356, "name": "INTELSAT 19 (IS-19)", "group": "intelsat", "lat": -0.03692453956064723, "lon": -112.22860295631958, "alt_km": 35775.458486288946, "timestamp": "2025-12-18T23:35:48.715147+00:00", "meta": {"OBJECT_NAME": "INTELSAT 19 (IS-19)", "OBJECT_ID": "2012-030A", "EPOCH": "2025-12-18T14:05:07.135296", "MEAN_MOTION": 1.00270444, "ECCENTRICITY": 0.00027068, "INCLINATION": 0.0103, "RA_OF_ASC_NODE": 338.5215, "ARG_OF_PERICENTER": 285.7195, "MEAN_ANOMALY": 200.4886, "EPHEMERIS_TYPE": 0, "CLASSIFICATION_TYPE": "U", "NORAD_CAT_ID": 38356, "ELEMENT_SET_NO": 999, "REV_AT_EPOCH": 4864, "BSTAR": 0, "MEAN_MOTION_DOT": -3.1e-07, "MEAN_MOTION_DDOT": 0}, "tle": {"line1": "1 38356U 12030A   25352.58688814 -.00000031  00000+0  00000+0 0  9999", "line2": "2 38356   0.0103 338.5215 0002706 285.7195 200.4886  1.00270444 48642"}}, "geometry": {"type": "Point", "coordinates": [-112.22860295631958, -0.03692453956064723]}}, {"type": "Feature", "properties": {"norad_id": 38740, "name": "INTELSAT 20 (IS-20)", "group": "intelsat", "lat": 0.015480173188290949, "lon": 150.23983341695168, "alt_km": 35776.65971808886, "timestamp": "2025-12-18T23:35:48.715159+00:00", "meta": {"OBJECT_NAME": "INTELSAT 20 (IS-20)", "OBJECT_ID": "2012-043A", "EPOCH": "2025-12-18T13:37:17.300640", "MEAN_MOTION": 1.0026598, "ECCENTRICITY": 0.00032604, "INCLINATION": 0.0048, "RA_OF_ASC_NODE": 36.6097, "ARG_OF_PERICENTER": 149.7129, "MEAN_ANOMALY": 173.9185, "EPHEMERIS_TYPE": 0, "CLASSIFICATION_TYPE": "U", "NORAD_CAT_ID": 38740, "ELEMENT_SET_NO": 999, "REV_AT_EPOCH": 4893, "BSTAR": 0, "MEAN_MOTION_DOT": 2e-08, "MEAN_MOTION_DDOT": 0}, "tle": {"line1": "1 38740U 12043A   25352.56756135  .00000002  00000+0  00000+0 0  9997", "line2": "2 38740   0.0048  36.6097 0003260 149.7129 173.9185  1.00265980 48930"}}, "geometry": {"type": "Point", "coordinates": [150.23983341695168, 0.015480173188290949]}}, {"type": "Feature", "properties": {"norad_id": 38749, "name": "INTELSAT 21 (IS-21)", "group": "intelsat", "lat": 0.03973045484664406, "lon": 23.785014035931642, "alt_km": 35791.844177418556, "timestamp": "2025-12-18T23:35:48.715171+00:00", "meta": {"OBJECT_NAME": "INTELSAT 21 (IS-21)", "OBJECT_ID": "2012-045A", "EPOCH": "2025-12-18T13:01:05.767968", "MEAN_MOTION": 1.0026864, "ECCENTRICITY": 0.00018222, "INCLINATION": 0.0304, "RA_OF_ASC_NODE": 283.9674, "ARG_OF_PERICENTER": 330.944, "MEAN_ANOMALY": 329.7603, "EPHEMERIS_TYPE": 0, "CLASSIFICATION_TYPE": "U", "NORAD_CAT_ID": 38749, "ELEMENT_SET_NO": 999, "REV_AT_EPOCH": 4871, "BSTAR": 0, "MEAN_MOTION_DOT": -2.6e-06, "MEAN_MOTION_DDOT": 0}, "tle": {"line1": "1 38749U 12045A   25352.54242787 -.00000260  00000+0  00000+0 0  9996", "line2": "2 38749   0.0304 283.9674 0001822 330.9440 329.7603  1.00268640 48712"}}, "geometry": {"type": "Point", "coordinates": [23.785014035931642, 0.03973045484664406]}}, {"type": "Feature", "properties": {"norad_id": 38867, "name": "INTELSAT 23 (IS-23)", "group": "intelsat", "lat": 0.01060488882589997, "lon": 28.824817850319313, "alt_km": 35786.793053382615, "timestamp": "2025-12-18T23:35:48.715183+00:00", "meta": {"OBJECT_NAME": "INTELSAT 23 (IS-23)", "OBJECT_ID": "2012-057A", "EPOCH": "2025-12-18T11:19:52.963392", "MEAN_MOTION": 1.00270852, "ECCENTRICITY": 5.649e-05, "INCLINATION": 0.017, "RA_OF_ASC_NODE": 29.9084, "ARG_OF_PERICENTER": 259.69, "MEAN_ANOMALY": 274.7471, "EPHEMERIS_TYPE": 0, "CLASSIFICATION_TYPE": "U", "NORAD_CAT_ID": 38867, "ELEMENT_SET_NO": 999, "REV_AT_EPOCH": 4814, "BSTAR": 0, "MEAN_MOTION_DOT": -2.6e-06, "MEAN_MOTION_DDOT": 0}, "tle": {"line1": "1 38867U 12057A   25352.47214078 -.00000260  00000+0  00000+0 0  9994", "line2": "2 38867   0.0170  29.9084 0000564 259.6900 274.7471  1.00270852 48144"}}, "geometry": {"type": "Point", "coordinates": [28.824817850319313, 0.01060488882589997]}}, {"type": "Feature", "properties": {"norad_id": 39360, "name": "FM-6", "group": "intelsat", "lat": -0.014880959187604056, "lon": -34.35749015182017, "alt_km": 35795.695209008634, "timestamp": "2025-12-18T23:35:48.715195+00:00", "meta": {"OBJECT_NAME": "FM-6", "OBJECT_ID": "2013-058A", "EPOCH": "2025-12-18T14:27:20.008224", "MEAN_MOTION": 1.00273107, "ECCENTRICITY": 0.00028667, "INCLINATION": 0.0123, "RA_OF_ASC_NODE": 67.2703, "ARG_OF_PERICENTER": 112.0416, "MEAN_ANOMALY": 8.8268, "EPHEMERIS_TYPE": 0, "CLASSIFICATION_TYPE": "U", "NORAD_CAT_ID": 39360, "ELEMENT_SET_NO": 999, "REV_AT_EPOCH": 4426, "BSTAR": 0, "MEAN_MOTION_DOT": 8e-08, "MEAN_MOTION_DDOT": 0}, "tle": {"line1": "1 39360U 13058A   25352.60231491  .00000008  00000+0  00000+0 0  9997", "line2": "2 39360   0.0123  67.2703 0002866 112.0416   8.8268  1.00273107 44260"}}, "geometry": {"type": "Point", "coordinates": [-34.35749015182017, -0.014880959187604056]}}, {"type": "Feature", "properties": {"norad_id": 40271, "name": "INTELSAT 30 (IS-30)", "group": "intelsat", "lat": -0.015370036587279588, "lon": -13.293899729718735, "alt_km": 35788.22246651328, "timestamp": "2025-12-18T23:35:48.715207+00:00", "meta": {"OBJECT_NAME": "INTELSAT 30 (IS-30)", "OBJECT_ID": "2014-062A", "EPOCH": "2025-12-18T14:33:19.434816", "MEAN_MOTION": 1.00270325, "ECCENTRICITY": 0.0001645, "INCLINATION": 0.0158, "RA_OF_ASC_NODE": 26.3613, "ARG_OF_PERICENTER": 64.6391, "MEAN_ANOMALY": 119.744, "EPHEMERIS_TYPE": 0, "CLASSIFICATION_TYPE": "U", "NORAD_CAT_ID": 40271, "ELEMENT_SET_NO": 999, "REV_AT_EPOCH": 498, "BSTAR": 0, "MEAN_MOTION_DOT": -1.26e-06, "MEAN_MOTION_DDOT": 0}, "tle": {"line1": "1 40271U 14062A   25352.60647494 -.00000126  00000+0  00000+0 0  9992", "line2": "2 40271   0.0158  26.3613 0001645  64.6391 119.7440  1.00270325  4983"}}, "geometry": {"type": "Point", "coordinates": [-13.293899729718735, -0.015370036587279588]}}, {"type": "Feature", "properties": {"norad_id": 40333, "name": "DIRECTV 14", "group": "intelsat", "lat": 0.0022668896440110587, "lon": -17.432667840300805, "alt_km": 35788.21726676997, "timestamp": "2025-12-18T23:35:48.715218+00:00", "meta": {"OBJECT_NAME": "DIRECTV 14", "OBJECT_ID": "2014-078B", "EPOCH": "2025-12-18T14:32:04.553664", "MEAN_MOTION": 1.00272625, "ECCENTRICITY": 5.636e-05, "INCLINATION": 0.0177, "RA_OF_ASC_NODE": 334.0753, "ARG_OF_PERICENTER": 186.0561, "MEAN_ANOMALY": 46.1403, "EPHEMERIS_TYPE": 0, "CLASSIFICATION_TYPE": "U", "NORAD_CAT_ID": 40333, "ELEMENT_SET_NO": 999, "REV_AT_EPOCH": 4023, "BSTAR": 0, "MEAN_MOTION_DOT": -1.01e-06, "MEAN_MOTION_DDOT": 0}, "tle": {"line1": "1 40333U 14078B   25352.60560826 -.00000101  00000+0  00000+0 0  9994", "line2": "2 40333   0.0177 334.0753 0000563 186.0561  46.1403  1.00272625 40238"}}, "geometry": {"type": "Point", "coordinates": [-17.432667840300805, 0.0022668896440110587]}}, {"type": "Feature", "properties": {"norad_id": 40663, "name": "DIRECTV 15", "group": "intelsat", "lat": -0.005916149812873174, "lon": -21.089814179697253, "alt_km": 35786.769193225424, "timestamp": "2025-12-18T23:35:48.715230+00:00", "meta": {"OBJECT_NAME": "DIRECTV 15", "OBJECT_ID": "2015-026A", "EPOCH": "2025-12-18T14:31:04.649952", "MEAN_MOTION": 1.00271589, "ECCENTRICITY": 2.014e-05, "INCLINATION": 0.0033, "RA_OF_ASC_NODE": 62.2506, "ARG_OF_PERICENTER": 54.3445, "MEAN_ANOMALY": 85.7717, "EPHEMERIS_TYPE": 0, "CLASSIFICATION_TYPE": "U", "NORAD_CAT_ID": 40663, "ELEMENT_SET_NO": 999, "REV_AT_EPOCH": 3865, "BSTAR": 0, "MEAN_MOTION_DOT": -7.8e-07, "MEAN_MOTION_DDOT": 0}, "tle": {"line1": "1 40663U 15026A   25352.60491493 -.00000078  00000+0  00000+0 0  9990", "line2": "2 40663   0.0033  62.2506 0000201  54.3445  85.7717  1.00271589 38656"}}, "geometry": {"type": "Point", "coordinates": [-21.089814179697253, -0.005916149812873174]}}]}